AJISAI (EGS)            
1 16908U 86061A   26091.21871242 -.00000107  00000+0 -69829-4 0  9997
2 16908  50.0118  24.0703 0011352 345.0254 161.7588 12.44515609470804
TDRS 3                  
1 19548U 88091B   26091.09766965 -.00000308  00000+0  00000+0 0  9999
2 19548  12.6603 341.5119 0042460 355.5136 198.6367  1.00268609124611
COSMOS 1989 (ETALON 1)  
1 19751U 89001C   26090.11752085  .00000017  00000+0  00000+0 0  9993
2 19751  64.9016  74.8638 0023383 217.6386 319.8622  2.13156000289704
COSMOS 2024 (ETALON 2)  
1 20026U 89039C   26090.64247942 -.00000031  00000+0  00000+0 0  9997
2 20026  64.9812 313.2082 0020488 213.1103 151.3774  2.13204592286859
FLTSATCOM 8 (USA 46)    
1 20253U 89077A   26089.56631838 -.00000378  00000+0  00000+0 0  9995
2 20253  12.4434 351.6353 0008009 356.9201 169.0456  1.00274078259771
LUSAT (LO-19)           
1 20442U 90005G   26091.01721413  .00000206  00000+0  90418-4 0  9996
2 20442  98.8915 110.6752 0012636  74.2917 285.9660 14.34097542891333
HST                     
1 20580U 90037B   26091.12518911  .00010706  00000+0  35185-3 0  9998
2 20580  28.4719 246.9114 0001974  26.3027 333.7668 15.29843870776751
SKYNET 4C               
1 20776U 90079A   26087.83666557  .00000113  00000+0  00000+0 0  9999
2 20776  13.3658 350.3637 0003469   5.3383 165.0871  1.00272795130084
USA 65 (DSP 15)         
1 20929U 90095A   26089.63513199 -.00000139  00000+0  00000+0 0  9999
2 20929  14.0523 344.5916 0004084  61.3977 124.6435  0.98397316 24692
TDRS 5                  
1 21639U 91054B   26090.41989300  .00000075  00000+0  00000+0 0  9991
2 21639  14.0814 354.3555 0009184 279.9681 258.0021  1.00277281126932
USA 75 (DSP 16)         
1 21805U 91080B   26091.06155775 -.00000247  00000+0  00000+0 0  9990
2 21805  14.0455 346.0593 0003845  67.6281 106.3818  0.99187614 24948
LAGEOS 2                
1 22195U 92070B   26079.09060082 -.00000009  00000+0  00000+0 0  9994
2 22195  52.6746 322.9737 0137714 148.3601   4.1736  6.47293426789659
TDRS 6                  
1 22314U 93003B   26091.23604097 -.00000303  00000+0  00000+0 0  9991
2 22314  14.1819 357.6301 0005088 183.9956  47.0688  1.00268644121632
SCD 1                   
1 22490U 93009B   26091.02567248  .00000638  00000+0  12374-3 0  9996
2 22490  24.9705 323.9917 0042028  41.6065  99.7226 14.46082841749933
UFO 2 (USA 95)          
1 22787U 93056A   26090.90187022  .00000117  00000+0  00000+0 0  9992
2 22787  11.8718   3.9744 0009182 339.8396 198.8492  1.00276840117774
STELLA                  
1 22824U 93061B   26091.15283115 -.00000027  00000+0  73707-5 0  9999
2 22824  98.7794 155.1034 0007473  99.9090 290.0211 14.27468231693786
EYESAT A (AO-27)        
1 22825U 93061C   26091.15296001  .00000153  00000+0  75429-4 0  9999
2 22825  98.6938 158.5751 0007733 333.4942  26.5844 14.30920612695988
