[{"OBJECT_NAME":"AJISAI (EGS)","OBJECT_ID":"1986-061A","EPOCH":"2026-04-01T05:14:56.753088","MEAN_MOTION":12.44515609,"ECCENTRICITY":0.0011352,"INCLINATION":50.0118,"RA_OF_ASC_NODE":24.0703,"ARG_OF_PERICENTER":345.0254,"MEAN_ANOMALY":161.7588,"EPHEMERIS_TYPE":0,"CLASSIFICATION_TYPE":"U","NORAD_CAT_ID":16908,"ELEMENT_SET_NO":999,"REV_AT_EPOCH":47080,"BSTAR":-6.9829e-5,"MEAN_MOTION_DOT":-1.07e-6,"MEAN_MOTION_DDOT":0},{"OBJECT_NAME":"TDRS 3","OBJECT_ID":"1988-091B","EPOCH":"2026-04-01T02:20:38.657760","MEAN_MOTION":1.00268609,"ECCENTRICITY":0.004246,"INCLINATION":12.6603,"RA_OF_ASC_NODE":341.5119,"ARG_OF_PERICENTER":355.5136,"MEAN_ANOMALY":198.6367,"EPHEMERIS_TYPE":0,"CLASSIFICATION_TYPE":"U","NORAD_CAT_ID":19548,"ELEMENT_SET_NO":999,"REV_AT_EPOCH":12461,"BSTAR":0,"MEAN_MOTION_DOT":-3.08e-6,"MEAN_MOTION_DDOT":0},{"OBJECT_NAME":"COSMOS 1989 (ETALON 1)","OBJECT_ID":"1989-001C","EPOCH":"2026-03-31T02:49:13.801440","MEAN_MOTION":2.13156,"ECCENTRICITY":0.00233836,"INCLINATION":64.9016,"RA_OF_ASC_NODE":74.8638,"ARG_OF_PERICENTER":217.6386,"MEAN_ANOMALY":319.8622,"EPHEMERIS_TYPE":0,"CLASSIFICATION_TYPE":"U","NORAD_CAT_ID":19751,"ELEMENT_SET_NO":999,"REV_AT_EPOCH":28970,"BSTAR":0,"MEAN_MOTION_DOT":1.7e-7,"MEAN_MOTION_DDOT":0},{"OBJECT_NAME":"COSMOS 2024 (ETALON 2)","OBJECT_ID":"1989-039C","EPOCH":"2026-03-31T15:25:10.221024","MEAN_MOTION":2.13204592,"ECCENTRICITY":0.0020488,"INCLINATION":64.9812,"RA_OF_ASC_NODE":313.2082,"ARG_OF_PERICENTER":213.1103,"MEAN_ANOMALY":151.3774,"EPHEMERIS_TYPE":0,"CLASSIFICATION_TYPE":"U","NORAD_CAT_ID":20026,"ELEMENT_SET_NO":999,"REV_AT_EPOCH":28685,"BSTAR":0,"MEAN_MOTION_DOT":-3.1e-7,"MEAN_MOTION_DDOT":0},{"OBJECT_NAME":"FLTSATCOM 8 (USA 46)","OBJECT_ID":"1989-077A","EPOCH":"2026-03-30T13:35:29.908032","MEAN_MOTION":1.00274078,"ECCENTRICITY":0.00080097,"INCLINATION":12.4434,"RA_OF_ASC_NODE":351.6353,"ARG_OF_PERICENTER":356.9201,"MEAN_ANOMALY":169.0456,"EPHEMERIS_TYPE":0,"CLASSIFICATION_TYPE":"U","NORAD_CAT_ID":20253,"ELEMENT_SET_NO":999,"REV_AT_EPOCH":25977,"BSTAR":0,"MEAN_MOTION_DOT":-3.78e-6,"MEAN_MOTION_DDOT":0},{"OBJECT_NAME":"LUSAT (LO-19)","OBJECT_ID":"1990-005G","EPOCH":"2026-04-01T00:24:47.300832","MEAN_MOTION":14.34097542,"ECCENTRICITY":0.0012636,"INCLINATION":98.8915,"RA_OF_ASC_NODE":110.6752,"ARG_OF_PERICENTER":74.2917,"MEAN_ANOMALY":285.966,"EPHEMERIS_TYPE":0,"CLASSIFICATION_TYPE":"U","NORAD_CAT_ID":20442,"ELEMENT_SET_NO":999,"REV_AT_EPOCH":89133,"BSTAR":9.0418e-5,"MEAN_MOTION_DOT":2.06e-6,"MEAN_MOTION_DDOT":0},{"OBJECT_NAME":"HST","OBJECT_ID":"1990-037B","EPOCH":"2026-04-01T03:00:16.339104","MEAN_MOTION":15.2984387,"ECCENTRICITY":0.0001974,"INCLINATION":28.4719,"RA_OF_ASC_NODE":246.9114,"ARG_OF_PERICENTER":26.3027,"MEAN_ANOMALY":333.7668,"EPHEMERIS_TYPE":0,"CLASSIFICATION_TYPE":"U","NORAD_CAT_ID":20580,"ELEMENT_SET_NO":999,"REV_AT_EPOCH":77675,"BSTAR":0.00035185,"MEAN_MOTION_DOT":0.00010706,"MEAN_MOTION_DDOT":0},{"OBJECT_NAME":"SKYNET 4C","OBJECT_ID":"1990-079A","EPOCH":"2026-03-28T20:04:47.905248","MEAN_MOTION":1.00272795,"ECCENTRICITY":0.00034695,"INCLINATION":13.3658,"RA_OF_ASC_NODE":350.3637,"ARG_OF_PERICENTER":5.3383,"MEAN_ANOMALY":165.0871,"EPHEMERIS_TYPE":0,"CLASSIFICATION_TYPE":"U","NORAD_CAT_ID":20776,"ELEMENT_SET_NO":999,"REV_AT_EPOCH":13008,"BSTAR":0,"MEAN_MOTION_DOT":1.13e-6,"MEAN_MOTION_DDOT":0},{"OBJECT_NAME":"USA 65 (DSP 15)","OBJECT_ID":"1990-095A","EPOCH":"2026-03-30T15:14:35.403936","MEAN_MOTION":0.98397316,"ECCENTRICITY":0.00040845,"INCLINATION":14.0523,"RA_OF_ASC_NODE":344.5916,"ARG_OF_PERICENTER":61.3977,"MEAN_ANOMALY":124.6435,"EPHEMERIS_TYPE":0,"CLASSIFICATION_TYPE":"U","NORAD_CAT_ID":20929,"ELEMENT_SET_NO":999,"REV_AT_EPOCH":2469,"BSTAR":0,"MEAN_MOTION_DOT":-1.39e-6,"MEAN_MOTION_DDOT":0},{"OBJECT_NAME":"TDRS 5","OBJECT_ID":"1991-054B","EPOCH":"2026-03-31T10:04:38.755200","MEAN_MOTION":1.00277281,"ECCENTRICITY":0.0009184,"INCLINATION":14.0814,"RA_OF_ASC_NODE":354.3555,"ARG_OF_PERICENTER":279.9681,"MEAN_ANOMALY":258.0021,"EPHEMERIS_TYPE":0,"CLASSIFICATION_TYPE":"U","NORAD_CAT_ID":21639,"ELEMENT_SET_NO":999,"REV_AT_EPOCH":12693,"BSTAR":0,"MEAN_MOTION_DOT":7.5e-7,"MEAN_MOTION_DDOT":0},{"OBJECT_NAME":"USA 75 (DSP 16)","OBJECT_ID":"1991-080B","EPOCH":"2026-04-01T01:28:38.589600","MEAN_MOTION":0.99187614,"ECCENTRICITY":0.0003845,"INCLINATION":14.0455,"RA_OF_ASC_NODE":346.0593,"ARG_OF_PERICENTER":67.6281,"MEAN_ANOMALY":106.3818,"EPHEMERIS_TYPE":0,"CLASSIFICATION_TYPE":"U","NORAD_CAT_ID":21805,"ELEMENT_SET_NO":999,"REV_AT_EPOCH":2494,"BSTAR":0,"MEAN_MOTION_DOT":-2.47e-6,"MEAN_MOTION_DDOT":0},{"OBJECT_NAME":"LAGEOS 2","OBJECT_ID":"1992-070B","EPOCH":"2026-03-20T02:10:27.910848","MEAN_MOTION":6.47293426,"ECCENTRICITY":0.0137714,"INCLINATION":52.6746,"RA_OF_ASC_NODE":322.9737,"ARG_OF_PERICENTER":148.3601,"MEAN_ANOMALY":4.1736,"EPHEMERIS_TYPE":0,"CLASSIFICATION_TYPE":"U","NORAD_CAT_ID":22195,"ELEMENT_SET_NO":999,"REV_AT_EPOCH":78965,"BSTAR":0,"MEAN_MOTION_DOT":-9.0e-8,"MEAN_MOTION_DDOT":0},{"OBJECT_NAME":"TDRS 6","OBJECT_ID":"1993-003B","EPOCH":"2026-04-01T05:39:53.939808","MEAN_MOTION":1.00268644,"ECCENTRICITY":0.0005088,"INCLINATION":14.1819,"RA_OF_ASC_NODE":357.6301,"ARG_OF_PERICENTER":183.9956,"MEAN_ANOMALY":47.0688,"EPHEMERIS_TYPE":0,"CLASSIFICATION_TYPE":"U","NORAD_CAT_ID":22314,"ELEMENT_SET_NO":999,"REV_AT_EPOCH":12163,"BSTAR":0,"MEAN_MOTION_DOT":-3.03e-6,"MEAN_MOTION_DDOT":0},{"OBJECT_NAME":"SCD 1","OBJECT_ID":"1993-009B","EPOCH":"2026-04-01T00:36:58.102272","MEAN_MOTION":14.46082841,"ECCENTRICITY":0.0042028,"INCLINATION":24.9705,"RA_OF_ASC_NODE":323.9917,"ARG_OF_PERICENTER":41.6065,"MEAN_ANOMALY":99.7226,"EPHEMERIS_TYPE":0,"CLASSIFICATION_TYPE":"U","NORAD_CAT_ID":22490,"ELEMENT_SET_NO":999,"REV_AT_EPOCH":74993,"BSTAR":0.00012374,"MEAN_MOTION_DOT":6.38e-6,"MEAN_MOTION_DDOT":0},{"OBJECT_NAME":"UFO 2 (USA 95)","OBJECT_ID":"1993-056A","EPOCH":"2026-03-31T21:38:41.587008","MEAN_MOTION":1.0027684,"ECCENTRICITY":0.0009183,"INCLINATION":11.8718,"RA_OF_ASC_NODE":3.9744,"ARG_OF_PERICENTER":339.8396,"MEAN_ANOMALY":198.8492,"EPHEMERIS_TYPE":0,"CLASSIFICATION_TYPE":"U","NORAD_CAT_ID":22787,"ELEMENT_SET_NO":999,"REV_AT_EPOCH":11777,"BSTAR":0,"MEAN_MOTION_DOT":1.17e-6,"MEAN_MOTION_DDOT":0},{"OBJECT_NAME":"STELLA","OBJECT_ID":"1993-061B","EPOCH":"2026-04-01T03:40:04.611360","MEAN_MOTION":14.27468231,"ECCENTRICITY":0.0007473,"INCLINATION":98.7794,"RA_OF_ASC_NODE":155.1034,"ARG_OF_PERICENTER":99.909,"MEAN_ANOMALY":290.0211,"EPHEMERIS_TYPE":0,"CLASSIFICATION_TYPE":"U","NORAD_CAT_ID":22824,"ELEMENT_SET_NO":999,"REV_AT_EPOCH":69378,"BSTAR":7.3707e-6,"MEAN_MOTION_DOT":-2.7e-7,"MEAN_MOTION_DDOT":0},{"OBJECT_NAME":"EYESAT A (AO-27)","OBJECT_ID":"1993-061C","EPOCH":"2026-04-01T03:40:15.744864","MEAN_MOTION":14.30920612,"ECCENTRICITY":0.0007733,"INCLINATION":98.6938,"RA_OF_ASC_NODE":158.5751,"ARG_OF_PERICENTER":333.4942,"MEAN_ANOMALY":26.5844,"EPHEMERIS_TYPE":0,"CLASSIFICATION_TYPE":"U","NORAD_CAT_ID":22825,"ELEMENT_SET_NO":999,"REV_AT_EPOCH":69598,"BSTAR":7.5429e-5,"MEAN_MOTION_DOT":1.53e-6,"MEAN_MOTION_DDOT":0}